CCSDS_OMM_VERS = 2.0
CREATION_DATE  = 
ORIGINATOR     = 

OBJECT_NAME    = ISS (ZARYA)
OBJECT_ID      = 1998-067A
CENTER_NAME    = EARTH
REF_FRAME      = TEME
TIME_SYSTEM    = UTC
MEAN_ELEMENT_THEORY = SGP/SGP4

EPOCH          = 2026-03-07T12:18:20.403360
MEAN_MOTION    = 15.48507964
ECCENTRICITY   = .00081324
INCLINATION    = 51.6318
RA_OF_ASC_NODE = 83.1189
ARG_OF_PERICENTER = 167.0679
MEAN_ANOMALY   = 193.0520

EPHEMERIS_TYPE = 0
CLASSIFICATION_TYPE = U
NORAD_CAT_ID   = 25544
ELEMENT_SET_NO = 999
REV_AT_EPOCH   = 55599
BSTAR          = .27601504E-3
MEAN_MOTION_DOT = .14539E-3
MEAN_MOTION_DDOT = 0

CCSDS_OMM_VERS = 2.0
CREATION_DATE  = 
ORIGINATOR     = 

OBJECT_NAME    = POISK
OBJECT_ID      = 2009-060A
CENTER_NAME    = EARTH
REF_FRAME      = TEME
TIME_SYSTEM    = UTC
MEAN_ELEMENT_THEORY = SGP/SGP4

EPOCH          = 2026-03-07T12:18:20.403360
MEAN_MOTION    = 15.48507964
ECCENTRICITY   = .00081324
INCLINATION    = 51.6318
RA_OF_ASC_NODE = 83.1189
ARG_OF_PERICENTER = 167.0679
MEAN_ANOMALY   = 193.0520

EPHEMERIS_TYPE = 0
CLASSIFICATION_TYPE = U
NORAD_CAT_ID   = 36086
ELEMENT_SET_NO = 999
REV_AT_EPOCH   = 55444
BSTAR          = .27601504E-3
MEAN_MOTION_DOT = .14539E-3
MEAN_MOTION_DDOT = 0

CCSDS_OMM_VERS = 2.0
CREATION_DATE  = 
ORIGINATOR     = 

OBJECT_NAME    = CSS (TIANHE)
OBJECT_ID      = 2021-035A
CENTER_NAME    = EARTH
REF_FRAME      = TEME
TIME_SYSTEM    = UTC
MEAN_ELEMENT_THEORY = SGP/SGP4

EPOCH          = 2026-03-07T14:29:25.066176
MEAN_MOTION    = 15.60534588
ECCENTRICITY   = .00069595
INCLINATION    = 41.4662
RA_OF_ASC_NODE = 220.8523
ARG_OF_PERICENTER = 260.1334
MEAN_ANOMALY   = 99.8719

EPHEMERIS_TYPE = 0
CLASSIFICATION_TYPE = U
NORAD_CAT_ID   = 48274
ELEMENT_SET_NO = 999
REV_AT_EPOCH   = 27728
BSTAR          = .30831615E-3
MEAN_MOTION_DOT = .25948E-3
MEAN_MOTION_DDOT = 0

CCSDS_OMM_VERS = 2.0
CREATION_DATE  = 
ORIGINATOR     = 

OBJECT_NAME    = ISS (NAUKA)
OBJECT_ID      = 2021-066A
CENTER_NAME    = EARTH
REF_FRAME      = TEME
TIME_SYSTEM    = UTC
MEAN_ELEMENT_THEORY = SGP/SGP4

EPOCH          = 2026-03-07T12:18:20.403360
MEAN_MOTION    = 15.48507964
ECCENTRICITY   = .00081324
INCLINATION    = 51.6318
RA_OF_ASC_NODE = 83.1189
ARG_OF_PERICENTER = 167.0679
MEAN_ANOMALY   = 193.0520

EPHEMERIS_TYPE = 0
CLASSIFICATION_TYPE = U
NORAD_CAT_ID   = 49044
ELEMENT_SET_NO = 999
REV_AT_EPOCH   = 55445
BSTAR          = .27601504E-3
MEAN_MOTION_DOT = .14539E-3
MEAN_MOTION_DDOT = 0

CCSDS_OMM_VERS = 2.0
CREATION_DATE  = 
ORIGINATOR     = 

OBJECT_NAME    = FREGAT DEB
OBJECT_ID      = 2011-037PF
CENTER_NAME    = EARTH
REF_FRAME      = TEME
TIME_SYSTEM    = UTC
MEAN_ELEMENT_THEORY = SGP/SGP4

EPOCH          = 2026-03-05T23:25:04.037088
MEAN_MOTION    = 12.39967329
ECCENTRICITY   = .09571042
INCLINATION    = 51.6493
RA_OF_ASC_NODE = 311.8987
ARG_OF_PERICENTER = 50.8853
MEAN_ANOMALY   = 317.3235

EPHEMERIS_TYPE = 0
CLASSIFICATION_TYPE = U
NORAD_CAT_ID   = 49271
ELEMENT_SET_NO = 999
REV_AT_EPOCH   = 21223
BSTAR          = .41642496E-1
MEAN_MOTION_DOT = .28561E-3
MEAN_MOTION_DDOT = 0

CCSDS_OMM_VERS = 2.0
CREATION_DATE  = 
ORIGINATOR     = 

OBJECT_NAME    = CSS (WENTIAN)
OBJECT_ID      = 2022-085A
CENTER_NAME    = EARTH
REF_FRAME      = TEME
TIME_SYSTEM    = UTC
MEAN_ELEMENT_THEORY = SGP/SGP4

EPOCH          = 2026-03-07T14:29:25.066176
MEAN_MOTION    = 15.60534588
ECCENTRICITY   = .00069595
INCLINATION    = 41.4662
RA_OF_ASC_NODE = 220.8523
ARG_OF_PERICENTER = 260.1334
MEAN_ANOMALY   = 99.8719

EPHEMERIS_TYPE = 0
CLASSIFICATION_TYPE = U
NORAD_CAT_ID   = 53239
ELEMENT_SET_NO = 999
REV_AT_EPOCH   = 27561
BSTAR          = .30831615E-3
MEAN_MOTION_DOT = .25948E-3
MEAN_MOTION_DDOT = 0

CCSDS_OMM_VERS = 2.0
CREATION_DATE  = 
ORIGINATOR     = 

OBJECT_NAME    = CSS (MENGTIAN)
OBJECT_ID      = 2022-143A
CENTER_NAME    = EARTH
REF_FRAME      = TEME
TIME_SYSTEM    = UTC
MEAN_ELEMENT_THEORY = SGP/SGP4

EPOCH          = 2026-03-07T14:29:25.066176
MEAN_MOTION    = 15.60534588
ECCENTRICITY   = .00069595
INCLINATION    = 41.4662
RA_OF_ASC_NODE = 220.8523
ARG_OF_PERICENTER = 260.1334
MEAN_ANOMALY   = 99.8719

EPHEMERIS_TYPE = 0
CLASSIFICATION_TYPE = U
NORAD_CAT_ID   = 54216
ELEMENT_SET_NO = 999
REV_AT_EPOCH   = 27558
BSTAR          = .30831615E-3
MEAN_MOTION_DOT = .25948E-3
MEAN_MOTION_DDOT = 0

CCSDS_OMM_VERS = 2.0
CREATION_DATE  = 
ORIGINATOR     = 

OBJECT_NAME    = PROGRESS-MS 31
OBJECT_ID      = 2025-146A
CENTER_NAME    = EARTH
REF_FRAME      = TEME
TIME_SYSTEM    = UTC
MEAN_ELEMENT_THEORY = SGP/SGP4

EPOCH          = 2026-03-07T12:18:20.403360
MEAN_MOTION    = 15.48507964
ECCENTRICITY   = .00081324
INCLINATION    = 51.6318
RA_OF_ASC_NODE = 83.1189
ARG_OF_PERICENTER = 167.0679
MEAN_ANOMALY   = 193.0520

EPHEMERIS_TYPE = 0
CLASSIFICATION_TYPE = U
NORAD_CAT_ID   = 64751
ELEMENT_SET_NO = 999
REV_AT_EPOCH   = 55446
BSTAR          = .27601504E-3
MEAN_MOTION_DOT = .14539E-3
MEAN_MOTION_DDOT = 0

CCSDS_OMM_VERS = 2.0
CREATION_DATE  = 
ORIGINATOR     = 

OBJECT_NAME    = TIANZHOU-9
OBJECT_ID      = 2025-149A
CENTER_NAME    = EARTH
REF_FRAME      = TEME
TIME_SYSTEM    = UTC
MEAN_ELEMENT_THEORY = SGP/SGP4

EPOCH          = 2026-03-07T14:29:25.066176
MEAN_MOTION    = 15.60534588
ECCENTRICITY   = .00069595
INCLINATION    = 41.4662
RA_OF_ASC_NODE = 220.8523
ARG_OF_PERICENTER = 260.1334
MEAN_ANOMALY   = 99.8719

EPHEMERIS_TYPE = 0
CLASSIFICATION_TYPE = U
NORAD_CAT_ID   = 64786
ELEMENT_SET_NO = 999
REV_AT_EPOCH   = 27559
BSTAR          = .30831615E-3
MEAN_MOTION_DOT = .25948E-3
MEAN_MOTION_DDOT = 0

CCSDS_OMM_VERS = 2.0
CREATION_DATE  = 
ORIGINATOR     = 

OBJECT_NAME    = PROGRESS-MS 32
OBJECT_ID      = 2025-204A
CENTER_NAME    = EARTH
REF_FRAME      = TEME
TIME_SYSTEM    = UTC
MEAN_ELEMENT_THEORY = SGP/SGP4

EPOCH          = 2026-03-07T12:18:20.403360
MEAN_MOTION    = 15.48507964
ECCENTRICITY   = .00081324
INCLINATION    = 51.6318
RA_OF_ASC_NODE = 83.1189
ARG_OF_PERICENTER = 167.0679
MEAN_ANOMALY   = 193.0520

EPHEMERIS_TYPE = 0
CLASSIFICATION_TYPE = U
NORAD_CAT_ID   = 65586
ELEMENT_SET_NO = 999
REV_AT_EPOCH   = 55450
BSTAR          = .27601504E-3
MEAN_MOTION_DOT = .14539E-3
MEAN_MOTION_DDOT = 0

CCSDS_OMM_VERS = 2.0
CREATION_DATE  = 
ORIGINATOR     = 

OBJECT_NAME    = CYGNUS NG-23
OBJECT_ID      = 2025-208A
CENTER_NAME    = EARTH
REF_FRAME      = TEME
TIME_SYSTEM    = UTC
MEAN_ELEMENT_THEORY = SGP/SGP4

EPOCH          = 2026-03-07T12:18:20.403360
MEAN_MOTION    = 15.48507964
ECCENTRICITY   = .00081324
INCLINATION    = 51.6318
RA_OF_ASC_NODE = 83.1189
ARG_OF_PERICENTER = 167.0679
MEAN_ANOMALY   = 193.0520

EPHEMERIS_TYPE = 0
CLASSIFICATION_TYPE = U
NORAD_CAT_ID   = 65616
ELEMENT_SET_NO = 999
REV_AT_EPOCH   = 55451
BSTAR          = .27601504E-3
MEAN_MOTION_DOT = .14539E-3
MEAN_MOTION_DDOT = 0

CCSDS_OMM_VERS = 2.0
CREATION_DATE  = 
ORIGINATOR     = 

OBJECT_NAME    = ISS OBJECT XK
OBJECT_ID      = 1998-067XK
CENTER_NAME    = EARTH
REF_FRAME      = TEME
TIME_SYSTEM    = UTC
MEAN_ELEMENT_THEORY = SGP/SGP4

EPOCH          = 2026-03-07T08:15:04.960224
MEAN_MOTION    = 16.16022441
ECCENTRICITY   = .00037028
INCLINATION    = 51.6132
RA_OF_ASC_NODE = 58.5421
ARG_OF_PERICENTER = 106.1301
MEAN_ANOMALY   = 254.0123

EPHEMERIS_TYPE = 0
CLASSIFICATION_TYPE = U
NORAD_CAT_ID   = 65731
ELEMENT_SET_NO = 999
REV_AT_EPOCH   = 2652
BSTAR          = .14668335E-2
MEAN_MOTION_DOT = .2003917E-1
MEAN_MOTION_DDOT = .42446593E-2

