ISS (ZARYA)             
1 25544U 98067A   26066.51273615  .00014539  00000+0  27602-3 0  9991
2 25544  51.6318  83.1189 0008132 167.0679 193.0520 15.48507964555998
POISK                   
1 36086U 09060A   26066.51273615  .00014539  00000+0  27602-3 0  9999
2 36086  51.6318  83.1189 0008132 167.0679 193.0520 15.48507964554440
CSS (TIANHE)            
1 48274U 21035A   26066.60376234  .00025948  00000+0  30832-3 0  9993
2 48274  41.4662 220.8523 0006959 260.1334  99.8719 15.60534588277284
ISS (NAUKA)             
1 49044U 21066A   26066.51273615  .00014539  00000+0  27602-3 0  9997
2 49044  51.6318  83.1189 0008132 167.0679 193.0520 15.48507964554459
FREGAT DEB              
1 49271U 11037PF  26064.97574117  .00028561  00000+0  41642-1 0  9993
2 49271  51.6493 311.8987 0957104  50.8853 317.3235 12.39967329212230
CSS (WENTIAN)           
1 53239U 22085A   26066.60376234  .00025948  00000+0  30832-3 0  9996
2 53239  41.4662 220.8523 0006959 260.1334  99.8719 15.60534588275616
CSS (MENGTIAN)          
1 54216U 22143A   26066.60376234  .00025948  00000+0  30832-3 0  9997
2 54216  41.4662 220.8523 0006959 260.1334  99.8719 15.60534588275588
PROGRESS-MS 31          
1 64751U 25146A   26066.51273615  .00014539  00000+0  27602-3 0  9992
2 64751  51.6318  83.1189 0008132 167.0679 193.0520 15.48507964554462
TIANZHOU-9              
1 64786U 25149A   26066.60376234  .00025948  00000+0  30832-3 0  9999
2 64786  41.4662 220.8523 0006959 260.1334  99.8719 15.60534588275592
PROGRESS-MS 32          
1 65586U 25204A   26066.51273615  .00014539  00000+0  27602-3 0  9994
2 65586  51.6318  83.1189 0008132 167.0679 193.0520 15.48507964554504
CYGNUS NG-23            
1 65616U 25208A   26066.51273615  .00014539  00000+0  27602-3 0  9992
2 65616  51.6318  83.1189 0008132 167.0679 193.0520 15.48507964554519
ISS OBJECT XK           
1 65731U 98067XK  26066.34380741  .02003917  42447-2  14668-2 0  9994
2 65731  51.6132  58.5421 0003702 106.1301 254.0123 16.16022441 26520
